{
  "type": "FeatureCollection",
  "features": [
    {
      "type": "Feature",
      "properties": {
        "norad_id": 38067,
        "name": "COSMOS 2251 DEB",
        "group": "cosmos-2251-debris",
        "lat": -64.46920835802771,
        "lon": 128.5098847340865,
        "alt_km": 744.4869395301257,
        "timestamp": "2025-12-14T05:42:18.860980+00:00",
        "meta_object_name": "COSMOS 2251 DEB",
        "meta_object_id": "1993-036BRZ",
        "meta_epoch": "2025-12-13T12:56:02.220576",
        "meta_mean_motion": 14.61132986,
        "meta_eccentricity": 0.00693335,
        "meta_inclination": 74.0176,
        "meta_ra_of_asc_node": 272.9737,
        "meta_arg_of_pericenter": 60.458,
        "meta_mean_anomaly": 115.2225,
        "meta_ephemeris_type": 0,
        "meta_classification_type": "U",
        "meta_norad_cat_id": 38067,
        "meta_element_set_no": 999,
        "meta_rev_at_epoch": 62567,
        "meta_bstar": 0.00062887252,
        "meta_mean_motion_dot": 3.171e-05,
        "meta_mean_motion_ddot": 0,
        "tle_line1": "1 38067U 93036BRZ 25347.53891459  .00003171  00000+0  62887-3 0  9995",
        "tle_line2": "2 38067  74.0176 272.9737 0069333  60.4580 115.2225 14.61132986625670"
      },
      "geometry": {
        "type": "Point",
        "coordinates": [
          128.5098847340865,
          -64.46920835802771
        ]
      }
    },
    {
      "type": "Feature",
      "properties": {
        "norad_id": 38068,
        "name": "COSMOS 2251 DEB",
        "group": "cosmos-2251-debris",
        "lat": -54.7436102917612,
        "lon": 149.41071673461926,
        "alt_km": 794.1974426009201,
        "timestamp": "2025-12-14T05:42:18.860991+00:00",
        "meta_object_name": "COSMOS 2251 DEB",
        "meta_object_id": "1993-036BSA",
        "meta_epoch": "2025-11-26T00:12:22.263264",
        "meta_mean_motion": 14.35960004,
        "meta_eccentricity": 0.00240903,
        "meta_inclination": 74.0219,
        "meta_ra_of_asc_node": 338.9788,
        "meta_arg_of_pericenter": 72.1007,
        "meta_mean_anomaly": 288.2769,
        "meta_ephemeris_type": 0,
        "meta_classification_type": "U",
        "meta_norad_cat_id": 38068,
        "meta_element_set_no": 999,
        "meta_rev_at_epoch": 66406,
        "meta_bstar": 0.00028750999,
        "meta_mean_motion_dot": 8.11e-06,
        "meta_mean_motion_ddot": 0,
        "tle_line1": "1 38068U 93036BSA 25330.00859101  .00000811  00000+0  28751-3 0  9998",
        "tle_line2": "2 38068  74.0219 338.9788 0024090  72.1007 288.2769 14.35960004664064"
      },
      "geometry": {
        "type": "Point",
        "coordinates": [
          149.41071673461926,
          -54.7436102917612
        ]
      }
    },
    {
      "type": "Feature",
      "properties": {
        "norad_id": 38197,
        "name": "COSMOS 2251 DEB",
        "group": "cosmos-2251-debris",
        "lat": 66.08966843676897,
        "lon": 34.63381350082189,
        "alt_km": 723.3454822623416,
        "timestamp": "2025-12-14T05:42:18.861001+00:00",
        "meta_object_name": "COSMOS 2251 DEB",
        "meta_object_id": "1993-036BSM",
        "meta_epoch": "2025-12-13T06:34:10.537248",
        "meta_mean_motion": 14.74086411,
        "meta_eccentricity": 0.01258373,
        "meta_inclination": 73.9395,
        "meta_ra_of_asc_node": 356.0012,
        "meta_arg_of_pericenter": 233.3614,
        "meta_mean_anomaly": 125.5937,
        "meta_ephemeris_type": 0,
        "meta_classification_type": "U",
        "meta_norad_cat_id": 38197,
        "meta_element_set_no": 999,
        "meta_rev_at_epoch": 85763,
        "meta_bstar": 0.006992667,
        "meta_mean_motion_dot": 0.00052653,
        "meta_mean_motion_ddot": 0,
        "tle_line1": "1 38197U 93036BSM 25347.27373307  .00052653  00000+0  69927-2 0  9997",
        "tle_line2": "2 38197  73.9395 356.0012 0125837 233.3614 125.5937 14.74086411857638"
      },
      "geometry": {
        "type": "Point",
        "coordinates": [
          34.63381350082189,
          66.08966843676897
        ]
      }
    },
    {
      "type": "Feature",
      "properties": {
        "norad_id": 38199,
        "name": "COSMOS 2251 DEB",
        "group": "cosmos-2251-debris",
        "lat": -5.888236324798094,
        "lon": 58.03014993529394,
        "alt_km": 750.7485190183197,
        "timestamp": "2025-12-14T05:42:18.861011+00:00",
        "meta_object_name": "COSMOS 2251 DEB",
        "meta_object_id": "1993-036BSP",
        "meta_epoch": "2025-12-09T13:08:57.601824",
        "meta_mean_motion": 13.64788419,
        "meta_eccentricity": 0.0369499,
        "meta_inclination": 73.956,
        "meta_ra_of_asc_node": 67.4327,
        "meta_arg_of_pericenter": 354.5631,
        "meta_mean_anomaly": 5.1515,
        "meta_ephemeris_type": 0,
        "meta_classification_type": "U",
        "meta_norad_cat_id": 38199,
        "meta_element_set_no": 999,
        "meta_rev_at_epoch": 60978,
        "meta_bstar": 0.00073909,
        "meta_mean_motion_dot": 9.26e-06,
        "meta_mean_motion_ddot": 0,
        "tle_line1": "1 38199U 93036BSP 25343.54788891  .00000926  00000+0  73909-3 0  9995",
        "tle_line2": "2 38199  73.9560  67.4327 0369499 354.5631   5.1515 13.64788419609786"
      },
      "geometry": {
        "type": "Point",
        "coordinates": [
          58.03014993529394,
          -5.888236324798094
        ]
      }
    },
    {
      "type": "Feature",
      "properties": {
        "norad_id": 38208,
        "name": "COSMOS 2251 DEB",
        "group": "cosmos-2251-debris",
        "lat": 68.09966424230018,
        "lon": 121.4580171546687,
        "alt_km": 609.5694378966609,
        "timestamp": "2025-12-14T05:42:18.861021+00:00",
        "meta_object_name": "COSMOS 2251 DEB",
        "meta_object_id": "1993-036BSY",
        "meta_epoch": "2025-12-13T17:06:55.631232",
        "meta_mean_motion": 14.83950363,
        "meta_eccentricity": 0.00020433,
        "meta_inclination": 74.0053,
        "meta_ra_of_asc_node": 76.977,
        "meta_arg_of_pericenter": 155.4201,
        "meta_mean_anomaly": 358.2431,
        "meta_ephemeris_type": 0,
        "meta_classification_type": "U",
        "meta_norad_cat_id": 38208,
        "meta_element_set_no": 999,
        "meta_rev_at_epoch": 71173,
        "meta_bstar": 0.0025143391,
        "meta_mean_motion_dot": 0.00020943,
        "meta_mean_motion_ddot": 0,
        "tle_line1": "1 38208U 93036BSY 25347.71314388  .00020943  00000+0  25143-2 0  9992",
        "tle_line2": "2 38208  74.0053  76.9770 0002043 155.4201 358.2431 14.83950363711732"
      },
      "geometry": {
        "type": "Point",
        "coordinates": [
          121.4580171546687,
          68.09966424230018
        ]
      }
    },
    {
      "type": "Feature",
      "properties": {
        "norad_id": 38212,
        "name": "COSMOS 2251 DEB",
        "group": "cosmos-2251-debris",
        "lat": -8.595463088755217,
        "lon": 71.18587529719197,
        "alt_km": 695.7528526051046,
        "timestamp": "2025-12-14T05:42:18.861031+00:00",
        "meta_object_name": "COSMOS 2251 DEB",
        "meta_object_id": "1993-036BTC",
        "meta_epoch": "2025-12-12T16:22:29.483616",
        "meta_mean_motion": 14.7768615,
        "meta_eccentricity": 0.00924054,
        "meta_inclination": 74.0522,
        "meta_ra_of_asc_node": 76.7119,
        "meta_arg_of_pericenter": 143.7275,
        "meta_mean_anomaly": 217.0214,
        "meta_ephemeris_type": 0,
        "meta_classification_type": "U",
        "meta_norad_cat_id": 38212,
        "meta_element_set_no": 999,
        "meta_rev_at_epoch": 81309,
        "meta_bstar": 0.00069160786,
        "meta_mean_motion_dot": 5.288e-05,
        "meta_mean_motion_ddot": 0,
        "tle_line1": "1 38212U 93036BTC 25346.68228569  .00005288  00000+0  69161-3 0  9991",
        "tle_line2": "2 38212  74.0522  76.7119 0092405 143.7275 217.0214 14.77686150813091"
      },
      "geometry": {
        "type": "Point",
        "coordinates": [
          71.18587529719197,
          -8.595463088755217
        ]
      }
    },
    {
      "type": "Feature",
      "properties": {
        "norad_id": 38220,
        "name": "COSMOS 2251 DEB",
        "group": "cosmos-2251-debris",
        "lat": -41.02477074050672,
        "lon": -100.27673802753678,
        "alt_km": 597.7365841673472,
        "timestamp": "2025-12-14T05:42:18.861042+00:00",
        "meta_object_name": "COSMOS 2251 DEB",
        "meta_object_id": "1993-036BTL",
        "meta_epoch": "2025-12-11T22:01:48.758016",
        "meta_mean_motion": 14.92850575,
        "meta_eccentricity": 0.0004483,
        "meta_inclination": 74.014,
        "meta_ra_of_asc_node": 69.9473,
        "meta_arg_of_pericenter": 50.1596,
        "meta_mean_anomaly": 309.9981,
        "meta_ephemeris_type": 0,
        "meta_classification_type": "U",
        "meta_norad_cat_id": 38220,
        "meta_element_set_no": 999,
        "meta_rev_at_epoch": 71358,
        "meta_bstar": 0.0045219,
        "meta_mean_motion_dot": 0.00047133,
        "meta_mean_motion_ddot": 0,
        "tle_line1": "1 38220U 93036BTL 25345.91792544  .00047133  00000+0  45219-2 0  9996",
        "tle_line2": "2 38220  74.0140  69.9473 0004483  50.1596 309.9981 14.92850575713585"
      },
      "geometry": {
        "type": "Point",
        "coordinates": [
          -100.27673802753678,
          -41.02477074050672
        ]
      }
    }
  ]
}